[{"OBJECT_NAME":"CALSPHERE 1","OBJECT_ID":"1964-063C","EPOCH":"2026-03-07T13:27:09.061056","MEAN_MOTION":13.76494806,"ECCENTRICITY":0.00236202,"INCLINATION":90.2159,"RA_OF_ASC_NODE":69.4017,"ARG_OF_PERICENTER":237.7131,"MEAN_ANOMALY":251.237,"EPHEMERIS_TYPE":0,"CLASSIFICATION_TYPE":"U","NORAD_CAT_ID":900,"ELEMENT_SET_NO":999,"REV_AT_EPOCH":5744,"BSTAR":0.00082263506,"MEAN_MOTION_DOT":8.15e-6,"MEAN_MOTION_DDOT":0},{"OBJECT_NAME":"CALSPHERE 2","OBJECT_ID":"1964-063E","EPOCH":"2026-03-07T13:44:23.771904","MEAN_MOTION":13.52891566,"ECCENTRICITY":0.00192814,"INCLINATION":90.2282,"RA_OF_ASC_NODE":73.3855,"ARG_OF_PERICENTER":156.7949,"MEAN_ANOMALY":332.1378,"EPHEMERIS_TYPE":0,"CLASSIFICATION_TYPE":"U","NORAD_CAT_ID":902,"ELEMENT_SET_NO":999,"REV_AT_EPOCH":84252,"BSTAR":2.5843915e-5,"MEAN_MOTION_DOT":2.6e-7,"MEAN_MOTION_DDOT":0},{"OBJECT_NAME":"LCS 1","OBJECT_ID":"1965-034C","EPOCH":"2026-03-07T09:16:02.153856","MEAN_MOTION":9.89309943,"ECCENTRICITY":0.00131795,"INCLINATION":32.1431,"RA_OF_ASC_NODE":58.7291,"ARG_OF_PERICENTER":121.747,"MEAN_ANOMALY":238.4313,"EPHEMERIS_TYPE":0,"CLASSIFICATION_TYPE":"U","NORAD_CAT_ID":1361,"ELEMENT_SET_NO":999,"REV_AT_EPOCH":19980,"BSTAR":-0.00090677305,"MEAN_MOTION_DOT":1.0e-8,"MEAN_MOTION_DDOT":0},{"OBJECT_NAME":"TEMPSAT 1","OBJECT_ID":"1965-065E","EPOCH":"2026-03-07T09:30:08.332992","MEAN_MOTION":13.33589027,"ECCENTRICITY":0.00700207,"INCLINATION":89.9932,"RA_OF_ASC_NODE":212.5874,"ARG_OF_PERICENTER":173.0839,"MEAN_ANOMALY":241.6557,"EPHEMERIS_TYPE":0,"CLASSIFICATION_TYPE":"U","NORAD_CAT_ID":1512,"ELEMENT_SET_NO":999,"REV_AT_EPOCH":94648,"BSTAR":6.7590321e-5,"MEAN_MOTION_DOT":4.3e-7,"MEAN_MOTION_DDOT":0},{"OBJECT_NAME":"CALSPHERE 4A","OBJECT_ID":"1965-065H","EPOCH":"2026-03-07T15:11:37.140864","MEAN_MOTION":13.3625885,"ECCENTRICITY":0.00704203,"INCLINATION":89.9036,"RA_OF_ASC_NODE":123.4906,"ARG_OF_PERICENTER":31.962,"MEAN_ANOMALY":123.3613,"EPHEMERIS_TYPE":0,"CLASSIFICATION_TYPE":"U","NORAD_CAT_ID":1520,"ELEMENT_SET_NO":999,"REV_AT_EPOCH":94914,"BSTAR":0.00021417919,"MEAN_MOTION_DOT":1.21e-6,"MEAN_MOTION_DDOT":0},{"OBJECT_NAME":"OPS 5712 (P/L 160)","OBJECT_ID":"1967-053A","EPOCH":"2026-03-07T14:20:35.388384","MEAN_MOTION":14.76139982,"ECCENTRICITY":0.00043188,"INCLINATION":69.9164,"RA_OF_ASC_NODE":287.0061,"ARG_OF_PERICENTER":225.3084,"MEAN_ANOMALY":134.7711,"EPHEMERIS_TYPE":0,"CLASSIFICATION_TYPE":"U","NORAD_CAT_ID":2826,"ELEMENT_SET_NO":999,"REV_AT_EPOCH":5123,"BSTAR":0.001553051,"MEAN_MOTION_DOT":0.00010686,"MEAN_MOTION_DDOT":0},{"OBJECT_NAME":"OPS 5712 (P/L 153)","OBJECT_ID":"1967-053H","EPOCH":"2026-03-07T03:37:42.949920","MEAN_MOTION":13.96811181,"ECCENTRICITY":0.00090927,"INCLINATION":69.9764,"RA_OF_ASC_NODE":334.0114,"ARG_OF_PERICENTER":312.6256,"MEAN_ANOMALY":47.4083,"EPHEMERIS_TYPE":0,"CLASSIFICATION_TYPE":"U","NORAD_CAT_ID":2874,"ELEMENT_SET_NO":999,"REV_AT_EPOCH":99253,"BSTAR":8.8053253e-5,"MEAN_MOTION_DOT":6.9e-7,"MEAN_MOTION_DDOT":0},{"OBJECT_NAME":"RIGIDSPHERE 2 (LCS 4)","OBJECT_ID":"1971-067E","EPOCH":"2026-03-07T13:59:54.134880","MEAN_MOTION":14.37738859,"ECCENTRICITY":0.00585859,"INCLINATION":87.6272,"RA_OF_ASC_NODE":6.9938,"ARG_OF_PERICENTER":208.1619,"MEAN_ANOMALY":151.6409,"EPHEMERIS_TYPE":0,"CLASSIFICATION_TYPE":"U","NORAD_CAT_ID":5398,"ELEMENT_SET_NO":999,"REV_AT_EPOCH":85928,"BSTAR":0.00034333442,"MEAN_MOTION_DOT":1.071e-5,"MEAN_MOTION_DDOT":0},{"OBJECT_NAME":"COSMOS 2493 (SKRL-756 1)","OBJECT_ID":"2013-078A","EPOCH":"2026-03-07T14:46:09.073920","MEAN_MOTION":15.01558799,"ECCENTRICITY":0.00115806,"INCLINATION":82.4164,"RA_OF_ASC_NODE":0.517,"ARG_OF_PERICENTER":222.8806,"MEAN_ANOMALY":137.1517,"EPHEMERIS_TYPE":0,"CLASSIFICATION_TYPE":"U","NORAD_CAT_ID":39490,"ELEMENT_SET_NO":999,"REV_AT_EPOCH":66271,"BSTAR":0.00046104327,"MEAN_MOTION_DOT":6.004e-5,"MEAN_MOTION_DDOT":0},{"OBJECT_NAME":"COSMOS 2494 (SKRL-756 2)","OBJECT_ID":"2013-078B","EPOCH":"2026-03-07T14:14:55.369824","MEAN_MOTION":15.04187133,"ECCENTRICITY":0.00157289,"INCLINATION":82.4159,"RA_OF_ASC_NODE":350.3498,"ARG_OF_PERICENTER":184.1255,"MEAN_ANOMALY":175.9845,"EPHEMERIS_TYPE":0,"CLASSIFICATION_TYPE":"U","NORAD_CAT_ID":39491,"ELEMENT_SET_NO":999,"REV_AT_EPOCH":66353,"BSTAR":0.00047716947,"MEAN_MOTION_DOT":6.669e-5,"MEAN_MOTION_DDOT":0}]
