CALSPHERE 1             
1 00900U 64063C   26066.56052154  .00000815  00000+0  82264-3 0  9994
2 00900  90.2159  69.4017 0023620 237.7131 251.2370 13.76494806 57449
CALSPHERE 2             
1 00902U 64063E   26066.57249736  .00000026  00000+0  25844-4 0  9997
2 00902  90.2282  73.3855 0019281 156.7949 332.1378 13.52891566842523
LCS 1                   
1 01361U 65034C   26066.38613604  .00000001  00000+0 -90677-3 0  9993
2 01361  32.1431  58.7291 0013179 121.7470 238.4313  9.89309943199807
TEMPSAT 1               
1 01512U 65065E   26066.39592978  .00000043  00000+0  67590-4 0  9990
2 01512  89.9932 212.5874 0070020 173.0839 241.6557 13.33589027946482
CALSPHERE 4A            
1 01520U 65065H   26066.63306876  .00000121  00000+0  21418-3 0  9991
2 01520  89.9036 123.4906 0070420  31.9620 123.3613 13.36258850949141
OPS 5712 (P/L 160)      
1 02826U 67053A   26066.59763181  .00010686  00000+0  15531-2 0  9996
2 02826  69.9164 287.0061 0004318 225.3084 134.7711 14.76139982 51234
OPS 5712 (P/L 153)      
1 02874U 67053H   26066.15119155  .00000069  00000+0  88053-4 0  9992
2 02874  69.9764 334.0114 0009092 312.6256  47.4083 13.96811181992538
RIGIDSPHERE 2 (LCS 4)   
1 05398U 71067E   26066.58326545  .00001071  00000+0  34333-3 0  9991
2 05398  87.6272   6.9938 0058585 208.1619 151.6409 14.37738859859285
COSMOS 2493 (SKRL-756 1)
1 39490U 13078A   26066.61538280  .00006004  00000+0  46104-3 0  9994
2 39490  82.4164   0.5170 0011580 222.8806 137.1517 15.01558799662715
COSMOS 2494 (SKRL-756 2)
1 39491U 13078B   26066.59369641  .00006669  00000+0  47717-3 0  9993
2 39491  82.4159 350.3498 0015728 184.1255 175.9845 15.04187133663533
